NORAD_CAT_ID,OBJECT_NAME,OBJECT_TYPE,EPOCH,MEAN_MOTION,ECCENTRICITY,INCLINATION,RA_OF_ASC_NODE,ARG_OF_PERICENTER,MEAN_ANOMALY,BSTAR,MEAN_MOTION_DOT,MEAN_MOTION_DDOT,TLE_LINE0,TLE_LINE1,TLE_LINE2,SEMIMAJOR_AXIS,PERIOD,APOGEE,PERIGEE,DECAYED
53848.0,STARLINK-4780,PAYLOAD,2023-07-18 13:27:04,15.08853354,0.0001217,53.2161,306.4909,106.3711,253.7415,0.00039667,6.033e-05,0.0,0 STARLINK-4780,1 53848U 22114AG  23199.56046540  .00006033  00000-0  39667-3 0  9998,2 53848  53.2161 306.4909 0001217 106.3711 253.7415 15.08853354 46738,6917.84,95.437,540.546,538.863,0.0
53848.0,STARLINK-4780,PAYLOAD,2023-07-19 10:07:05,15.08823904,0.000153,53.2173,302.6222,116.9742,243.1407,0.00019254,2.776e-05,0.0,0 STARLINK-4780,1 53848U 22114AG  23200.42159335  .00002776  00000-0  19254-3 0  9993,2 53848  53.2173 302.6222 0001530 116.9742 243.1407 15.08823904 46862,6917.93,95.439,540.853,538.736,0.0
53848.0,STARLINK-4780,PAYLOAD,2023-07-20 16:19:25,15.08862472,0.0001186,53.2171,296.976,94.4625,265.6503,0.0011319,0.00017783,0.0,0 STARLINK-4780,1 53848U 22114AG  23201.68015447  .00017783  00000-0  11319-2 0  9994,2 53848  53.2171 296.9760 0001186  94.4625 265.6503 15.08862472 47050,6917.812,95.436,540.497,538.856,0.0
53848.0,STARLINK-4780,PAYLOAD,2023-07-21 06:37:53,15.08856662,0.000115,53.2165,294.2998,92.5164,267.596,0.0006586,0.00010214,0.0,0 STARLINK-4780,1 53848U 22114AG  23202.27631374  .00010214  00000-0  65860-3 0  9996,2 53848  53.2165 294.2998 0001150  92.5164 267.5960 15.08856662 47147,6917.829,95.437,540.49,538.899,0.0
53848.0,STARLINK-4780,PAYLOAD,2023-07-23 15:51:46,15.08840524,8.55e-05,53.2164,283.5956,88.3249,271.7841,0.00042255,6.444e-05,0.0,0 STARLINK-4780,1 53848U 22114AG  23204.66095630  .00006444  00000-0  42255-3 0  9993,2 53848  53.2164 283.5956 0000855  88.3249 271.7841 15.08840524 48044,6917.879,95.438,540.335,539.152,0.0
53848.0,STARLINK-4780,PAYLOAD,2023-07-25 12:22:34,15.08836657,0.0001127,53.2161,275.2674,68.994,291.1172,4.97e-05,5.03e-06,0.0,0 STARLINK-4780,1 53848U 22114AG  23206.51568032  .00000503  00000-0  49700-4 0  9993,2 53848  53.2161 275.2674 0001127  68.9940 291.1172 15.08836657 48327,6917.891,95.438,540.535,538.976,0.0
53848.0,STARLINK-4780,PAYLOAD,2023-07-26 07:27:13,15.0881116,8.64e-05,53.2157,271.6976,110.0851,250.0234,0.0007128,0.00011066,0.0,0 STARLINK-4780,1 53848U 22114AG  23207.31056862  .00011066  00000-0  71280-3 0  9998,2 53848  53.2157 271.6976 0000864 110.0851 250.0234 15.08811160 48442,6917.969,95.439,540.431,539.236,0.0
53848.0,STARLINK-4780,PAYLOAD,2023-07-26 13:48:45,15.08839141,0.0001521,53.213,270.5148,44.0151,316.0962,0.0002542,3.76e-05,0.0,0 STARLINK-4780,1 53848U 22114AG  23207.57552309  .00003760  00000-0  25420-3 0  9990,2 53848  53.2130 270.5148 0001521  44.0151 316.0962 15.08839141 47946,6917.883,95.438,540.8,538.696,0.0
53848.0,STARLINK-4780,PAYLOAD,2023-07-27 13:39:31,15.08847366,9.66e-05,53.2142,266.0496,82.4152,277.695,0.00016265,2.302e-05,0.0,0 STARLINK-4780,1 53848U 22114AG  23208.56911685  .00002302  00000-0  16265-3 0  9994,2 53848  53.2142 266.0496 0000966  82.4152 277.6950 15.08847366 48638,6917.858,95.437,540.391,539.055,0.0
53848.0,STARLINK-4780,PAYLOAD,2023-07-27 15:14:54,15.08849146,9.92e-05,53.2142,265.7536,81.0037,279.1067,0.00024354,3.591e-05,0.0,0 STARLINK-4780,1 53848U 22114AG  23208.63535652  .00003591  00000-0  24354-3 0  9997,2 53848  53.2142 265.7536 0000992  81.0037 279.1067 15.08849146 48101,6917.852,95.437,540.404,539.031,0.0
53848.0,STARLINK-4780,PAYLOAD,2023-07-28 13:30:19,15.08837317,9.93e-05,53.2147,261.5899,78.9381,281.1723,-2.0567e-06,-3.2e-06,0.0,0 STARLINK-4780,1 53848U 22114AG  23209.56272342 -.00000320  00000-0 -20567-5 0  9997,2 53848  53.2147 261.5899 0000993  78.9381 281.1723 15.08837317 48783,6917.889,95.438,540.441,539.067,0.0
53848.0,STARLINK-4780,PAYLOAD,2023-07-28 15:05:42,15.08839194,8.22e-05,53.214,261.2926,97.6272,262.4814,1.2161e-05,-9.4e-07,0.0,0 STARLINK-4780,1 53848U 22114AG  23209.62896124 -.00000094  00000-0  12161-4 0  9991,2 53848  53.2140 261.2926 0000822  97.6272 262.4814 15.08839194 48252,6917.883,95.438,540.317,539.179,0.0
53848.0,STARLINK-4780,PAYLOAD,2023-07-29 14:56:28,15.08853958,9.91e-05,53.2158,256.8316,76.4134,283.6969,0.00031576,4.743e-05,0.0,0 STARLINK-4780,1 53848U 22114AG  23210.62255590  .00004743  00000-0  31576-3 0  9993,2 53848  53.2158 256.8316 0000991  76.4134 283.6969 15.08853958 48400,6917.838,95.437,540.388,539.017,0.0
53848.0,STARLINK-4780,PAYLOAD,2023-07-29 19:42:38,15.08836091,0.0001031,53.2154,255.9393,84.9321,275.1789,-6.0807e-06,-3.85e-06,0.0,0 STARLINK-4780,1 53848U 22114AG  23210.82128153 -.00000385  00000-0 -60807-5 0  9990,2 53848  53.2154 255.9393 0001031  84.9321 275.1789 15.08836091 48437,6917.892,95.438,540.471,539.044,0.0
53848.0,STARLINK-4780,PAYLOAD,2023-07-30 11:36:29,15.08844338,0.000101,53.2151,252.9661,88.3882,271.7226,0.00020506,2.978e-05,0.0,0 STARLINK-4780,1 53848U 22114AG  23211.48368030  .00002978  00000-0  20506-3 0  9991,2 53848  53.2151 252.9661 0001010  88.3882 271.7226 15.08844338 48538,6917.867,95.437,540.431,539.033,0.0
53848.0,STARLINK-4780,PAYLOAD,2023-07-31 09:51:54,15.08844597,0.0001025,53.2142,248.8031,87.6406,272.4703,0.00025281,3.738e-05,0.0,0 STARLINK-4780,1 53848U 22114AG  23212.41104167  .00003738  00000-0  25281-3 0  9994,2 53848  53.2142 248.8031 0001025  87.6406 272.4703 15.08844597 48673,6917.866,95.437,540.44,539.022,0.0
53848.0,STARLINK-4780,PAYLOAD,2023-08-01 01:45:45,15.08840577,0.0001091,53.214,245.8292,92.6763,267.4354,0.00015341,2.155e-05,0.0,0 STARLINK-4780,1 53848U 22114AG  23213.07344326  .00002155  00000-0  15341-3 0  9998,2 53848  53.2140 245.8292 0001091  92.6763 267.4354 15.08840577 48773,6917.879,95.438,540.498,538.989,0.0
53848.0,STARLINK-4780,PAYLOAD,2023-08-02 09:33:28,15.08842888,0.0001078,53.2144,239.8815,91.1955,268.9161,0.00010178,1.333e-05,0.0,0 STARLINK-4780,1 53848U 22114AG  23214.39824376  .00001333  00000-0  10178-3 0  9992,2 53848  53.2144 239.8815 0001078  91.1955 268.9161 15.08842888 48974,6917.872,95.437,540.482,538.991,0.0
53848.0,STARLINK-4780,PAYLOAD,2023-08-03 07:48:52,15.08840037,0.0001088,53.2155,235.7185,88.543,271.5687,9.2894e-05,1.191e-05,0.0,0 STARLINK-4780,1 53848U 22114AG  23215.32560736  .00001191  00000-0  92894-4 0  9991,2 53848  53.2155 235.7185 0001088  88.5430 271.5687 15.08840037 49114,6917.88,95.438,540.498,538.993,0.0
53848.0,STARLINK-4780,PAYLOAD,2023-08-04 12:25:48,15.08841858,0.0001105,53.2154,230.3656,88.7191,271.3928,5.9689e-05,6.62e-06,0.0,0 STARLINK-4780,1 53848U 22114AG  23216.51792617  .00000662  00000-0  59689-4 0  9995,2 53848  53.2154 230.3656 0001105  88.7191 271.3928 15.08841858 49290,6917.875,95.437,540.504,538.975,0.0
53848.0,STARLINK-4780,PAYLOAD,2023-08-05 10:41:12,15.08849725,0.0001099,53.2154,226.2025,87.0395,273.0723,0.00014199,1.973e-05,0.0,0 STARLINK-4780,1 53848U 22114AG  23217.44527841  .00001973  00000-0  14199-3 0  9995,2 53848  53.2154 226.2025 0001099  87.0395 273.0723 15.08849725 49433,6917.851,95.437,540.476,538.955,0.0
53848.0,STARLINK-4780,PAYLOAD,2023-08-06 04:10:27,15.08837901,0.0001065,53.2153,222.9314,89.4923,270.6192,4.696e-05,4.6e-06,0.0,0 STARLINK-4780,1 53848U 22114AG  23218.17392864  .00000460  00000-0  46960-4 0  9993,2 53848  53.2153 222.9314 0001065  89.4923 270.6192 15.08837901 49540,6917.887,95.438,540.489,539.015,0.0
53848.0,STARLINK-4780,PAYLOAD,2023-08-07 08:47:24,15.0884077,0.0001155,53.2153,217.5784,102.3099,257.8023,-3.4194e-05,-8.32e-06,0.0,0 STARLINK-4780,1 53848U 22114AG  23219.36625122 -.00000832  00000-0 -34194-4 0  9992,2 53848  53.2153 217.5784 0001155 102.3099 257.8023 15.08840770 49728,6917.878,95.438,540.542,538.944,0.0
53848.0,STARLINK-4780,PAYLOAD,2023-08-09 02:07:25,15.08839217,0.0001166,53.2156,209.8475,92.7254,267.3872,0.0001363,1.882e-05,0.0,0 STARLINK-4780,1 53848U 22114AG  23221.08849324  .00001882  00000-0  13630-3 0  9991,2 53848  53.2156 209.8475 0001166  92.7254 267.3872 15.08839217 49989,6917.883,95.438,540.554,538.941,0.0
53848.0,STARLINK-4780,PAYLOAD,2023-08-10 08:19:45,15.08842964,0.0001238,53.2159,204.1971,98.1842,261.929,9.5244e-05,1.228e-05,0.0,0 STARLINK-4780,1 53848U 22114AG  23222.34705170  .00001228  00000-0  95244-4 0  9997,2 53848  53.2159 204.1971 0001238  98.1842 261.9290 15.08842964 50174,6917.871,95.437,540.593,538.88,0.0
53848.0,STARLINK-4780,PAYLOAD,2023-08-10 22:38:13,15.08839127,0.0001176,53.2158,201.521,86.4103,273.7024,4.0692e-05,3.6e-06,0.0,0 STARLINK-4780,1 53848U 22114AG  23222.94321553  .00000360  00000-0  40692-4 0  9995,2 53848  53.2158 201.5210 0001176  86.4103 273.7024 15.08839127 50264,6917.883,95.438,540.562,538.935,0.0
53848.0,STARLINK-4780,PAYLOAD,2023-08-11 08:10:32,15.08845358,0.0001196,53.2158,199.7365,89.5826,270.5303,8.0836e-05,9.99e-06,0.0,0 STARLINK-4780,1 53848U 22114AG  23223.34064987  .00000999  00000-0  80836-4 0  9997,2 53848  53.2158 199.7365 0001196  89.5826 270.5303 15.08845358 50326,6917.864,95.437,540.556,538.902,0.0
53848.0,STARLINK-4780,PAYLOAD,2023-08-11 16:07:28,15.08838958,0.0001241,53.2156,198.2505,84.7641,275.3493,3.4788e-05,2.66e-06,0.0,0 STARLINK-4780,1 53848U 22114AG  23223.67185527  .00000266  00000-0  34788-4 0  9999,2 53848  53.2156 198.2505 0001241  84.7641 275.3493 15.08838958 50373,6917.884,95.438,540.607,538.89,0.0
53848.0,STARLINK-4780,PAYLOAD,2023-08-12 23:55:11,15.08832416,0.000121,53.2161,192.3017,98.8374,261.2755,5.8376e-05,6.41e-06,0.0,0 STARLINK-4780,1 53848U 22114AG  23224.99666063  .00000641  00000-0  58376-4 0  9990,2 53848  53.2161 192.3017 0001210  98.8374 261.2755 15.08832416 50577,6917.904,95.438,540.606,538.932,0.0
53848.0,STARLINK-4780,PAYLOAD,2023-08-13 09:27:29,15.08842082,0.0001416,53.2156,190.519,92.1448,267.9706,5.4979e-05,5.87e-06,0.0,0 STARLINK-4780,1 53848U 22114AG  23225.39409488  .00000587  00000-0  54979-4 0  9995,2 53848  53.2156 190.5190 0001416  92.1448 267.9706 15.08842082 50636,6917.874,95.437,540.719,538.759,0.0
